[
    {
        "Altitude(m)": 554015.2988310026,
        "Argument of Periapsis(deg)": 0.006622991110713501,
        "Eccentricity": 0.0,
        "Inclination(deg)": 53.0,
        "Latitude(deg)": 22.287892660864813,
        "Longitude(deg)": -92.88364188804786,
        "Mean Anomaly(deg)": -331.72660713242243,
        "RAAN(deg)": 349.99014336852804,
        "Satellite Name": "Starlink Shell 1 1541",
        "Satellite Number": 1541,
        "Semi-Major Axis(m)": 6931778.249405717,
        "Time(s)": 190
    },
    {
        "Altitude(m)": 554064.9600077014,
        "Argument of Periapsis(deg)": 0.0069715695902247375,
        "Eccentricity": 0.0,
        "Inclination(deg)": 53.0,
        "Latitude(deg)": 22.766365738585723,
        "Longitude(deg)": -92.48376108761433,
        "Mean Anomaly(deg)": -331.0997759288657,
        "RAAN(deg)": 349.9896245984506,
        "Satellite Name": "Starlink Shell 1 1541",
        "Satellite Number": 1541,
        "Semi-Major Axis(m)": 6931778.249405717,
        "Time(s)": 200
    },
    {
        "Altitude(m)": 554116.4584416532,
        "Argument of Periapsis(deg)": 0.007320148069735974,
        "Eccentricity": 0.0,
        "Inclination(deg)": 53.0,
        "Latitude(deg)": 23.243584217344686,
        "Longitude(deg)": -92.08080035156294,
        "Mean Anomaly(deg)": -330.47294472530893,
        "RAAN(deg)": 349.98910582837306,
        "Satellite Name": "Starlink Shell 1 1541",
        "Satellite Number": 1541,
        "Semi-Major Axis(m)": 6931778.249405717,
        "Time(s)": 210
    },
    {
        "Altitude(m)": 554169.7486243297,
        "Argument of Periapsis(deg)": 0.007668726549247212,
        "Eccentricity": 0.0,
        "Inclination(deg)": 53.0,
        "Latitude(deg)": 23.71951015567752,
        "Longitude(deg)": -91.67467394068936,
        "Mean Anomaly(deg)": -329.8461135217523,
        "RAAN(deg)": 349.9885870582956,
        "Satellite Name": "Starlink Shell 1 1541",
        "Satellite Number": 1541,
        "Semi-Major Axis(m)": 6931778.249405717,
        "Time(s)": 220
    },
    {
        "Altitude(m)": 554224.7843162684,
        "Argument of Periapsis(deg)": 0.00801730502875845,
        "Eccentricity": 0.0,
        "Inclination(deg)": 53.0,
        "Latitude(deg)": 24.19410485630135,
        "Longitude(deg)": -91.26529490866474,
        "Mean Anomaly(deg)": -329.21928231819555,
        "RAAN(deg)": 349.98806828821813,
        "Satellite Name": "Starlink Shell 1 1541",
        "Satellite Number": 1541,
        "Semi-Major Axis(m)": 6931778.249405717,
        "Time(s)": 230
    },
    {
        "Altitude(m)": 554281.5185722694,
        "Argument of Periapsis(deg)": 0.008365883508269684,
        "Eccentricity": 0.0,
        "Inclination(deg)": 53.0,
        "Latitude(deg)": 24.66732884115143,
        "Longitude(deg)": -90.85257457877837,
        "Mean Anomaly(deg)": -328.5924511146389,
        "RAAN(deg)": 349.98754951814067,
        "Satellite Name": "Starlink Shell 1 1541",
        "Satellite Number": 1541,
        "Semi-Major Axis(m)": 6931778.249405717,
        "Time(s)": 240
    },
    {
        "Altitude(m)": 554339.9037668934,
        "Argument of Periapsis(deg)": 0.008714461987780921,
        "Eccentricity": 0.0,
        "Inclination(deg)": 53.0,
        "Latitude(deg)": 25.139141825889748,
        "Longitude(deg)": -90.43642353477846,
        "Mean Anomaly(deg)": -327.9656199110821,
        "RAAN(deg)": 349.98703074806315,
        "Satellite Name": "Starlink Shell 1 1541",
        "Satellite Number": 1541,
        "Semi-Major Axis(m)": 6931778.249405717,
        "Time(s)": 250
    },
    {
        "Altitude(m)": 554399.8916202482,
        "Argument of Periapsis(deg)": 0.009063040467292158,
        "Eccentricity": 0.0,
        "Inclination(deg)": 53.0,
        "Latitude(deg)": 25.609502693881105,
        "Longitude(deg)": -90.01675110020386,
        "Mean Anomaly(deg)": -327.3387887075254,
        "RAAN(deg)": 349.98651197798574,
        "Satellite Name": "Starlink Shell 1 1541",
        "Satellite Number": 1541,
        "Semi-Major Axis(m)": 6931778.249405717,
        "Time(s)": 260
    },
    {
        "Altitude(m)": 554461.4332240646,
        "Argument of Periapsis(deg)": 0.009411618946803396,
        "Eccentricity": 0.0,
        "Inclination(deg)": 53.0,
        "Latitude(deg)": 26.078369469637938,
        "Longitude(deg)": -89.59346481922086,
        "Mean Anomaly(deg)": -326.71195750396873,
        "RAAN(deg)": 349.9859932079083,
        "Satellite Name": "Starlink Shell 1 1541",
        "Satellite Number": 1541,
        "Semi-Major Axis(m)": 6931778.249405717,
        "Time(s)": 270
    },
    {
        "Altitude(m)": 554524.4790680683,
        "Argument of Periapsis(deg)": 0.009760197426314633,
        "Eccentricity": 0.0,
        "Inclination(deg)": 53.0,
        "Latitude(deg)": 26.54569929173603,
        "Longitude(deg)": -89.16647145199215,
        "Mean Anomaly(deg)": -326.08512630041196,
        "RAAN(deg)": 349.98547443783076,
        "Satellite Name": "Starlink Shell 1 1541",
        "Satellite Number": 1541,
        "Semi-Major Axis(m)": 6931778.249405717,
        "Time(s)": 280
    },
    {
        "Altitude(m)": 554588.979066578,
        "Argument of Periapsis(deg)": 0.01010877590582587,
        "Eccentricity": 0.0,
        "Inclination(deg)": 53.0,
        "Latitude(deg)": 27.01144838520345,
        "Longitude(deg)": -88.73567645900137,
        "Mean Anomaly(deg)": -325.4582950968553,
        "RAAN(deg)": 349.9849556677533,
        "Satellite Name": "Starlink Shell 1 1541",
        "Satellite Number": 1541,
        "Semi-Major Axis(m)": 6931778.249405717,
        "Time(s)": 290
    },
    {
        "Altitude(m)": 554654.8825853978,
        "Argument of Periapsis(deg)": 0.010457354385337106,
        "Eccentricity": 0.0,
        "Inclination(deg)": 53.0,
        "Latitude(deg)": 27.475572033389373,
        "Longitude(deg)": -88.30098348738291,
        "Mean Anomaly(deg)": -324.8314638932986,
        "RAAN(deg)": 349.98443689767583,
        "Satellite Name": "Starlink Shell 1 1541",
        "Satellite Number": 1541,
        "Semi-Major Axis(m)": 6931778.249405717,
        "Time(s)": 300
    },
    {
        "Altitude(m)": 554722.1384688594,
        "Argument of Periapsis(deg)": 0.010805932864848343,
        "Eccentricity": 0.0,
        "Inclination(deg)": 53.0,
        "Latitude(deg)": 27.93802454932091,
        "Longitude(deg)": -87.86229537232069,
        "Mean Anomaly(deg)": -324.2046326897418,
        "RAAN(deg)": 349.9839181275984,
        "Satellite Name": "Starlink Shell 1 1541",
        "Satellite Number": 1541,
        "Semi-Major Axis(m)": 6931778.249405717,
        "Time(s)": 310
    },
    {
        "Altitude(m)": 554790.6950671906,
        "Argument of Periapsis(deg)": 0.01115451134435958,
        "Eccentricity": 0.0,
        "Inclination(deg)": 53.0,
        "Latitude(deg)": 28.39875924655856,
        "Longitude(deg)": -87.41951362797734,
        "Mean Anomaly(deg)": -323.57780148618514,
        "RAAN(deg)": 349.9833993575209,
        "Satellite Name": "Starlink Shell 1 1541",
        "Satellite Number": 1541,
        "Semi-Major Axis(m)": 6931778.249405717,
        "Time(s)": 320
    },
    {
        "Altitude(m)": 554860.5002639901,
        "Argument of Periapsis(deg)": 0.011503089823870818,
        "Eccentricity": 0.0,
        "Inclination(deg)": 53.0,
        "Latitude(deg)": 28.85772840956389,
        "Longitude(deg)": -86.97253794104483,
        "Mean Anomaly(deg)": -322.9509702826284,
        "RAAN(deg)": 349.9828805874434,
        "Satellite Name": "Starlink Shell 1 1541",
        "Satellite Number": 1541,
        "Semi-Major Axis(m)": 6931778.249405717,
        "Time(s)": 330
    },
    {
        "Altitude(m)": 554931.5015039467,
        "Argument of Periapsis(deg)": 0.011851668303382053,
        "Eccentricity": 0.0,
        "Inclination(deg)": 53.0,
        "Latitude(deg)": 29.314883263596396,
        "Longitude(deg)": -86.52126718002182,
        "Mean Anomaly(deg)": -322.32413907907164,
        "RAAN(deg)": 349.9823618173659,
        "Satellite Name": "Starlink Shell 1 1541",
        "Satellite Number": 1541,
        "Semi-Major Axis(m)": 6931778.249405717,
        "Time(s)": 340
    },
    {
        "Altitude(m)": 555003.6458207177,
        "Argument of Periapsis(deg)": 0.012200246782893292,
        "Eccentricity": 0.0,
        "Inclination(deg)": 53.0,
        "Latitude(deg)": 29.770173944159655,
        "Longitude(deg)": -86.06559889472399,
        "Mean Anomaly(deg)": -321.6973078755149,
        "RAAN(deg)": 349.98184304728846,
        "Satellite Name": "Starlink Shell 1 1541",
        "Satellite Number": 1541,
        "Semi-Major Axis(m)": 6931778.249405717,
        "Time(s)": 350
    },
    {
        "Altitude(m)": 555076.8798649609,
        "Argument of Periapsis(deg)": 0.012548825262404526,
        "Eccentricity": 0.0,
        "Inclination(deg)": 53.0,
        "Latitude(deg)": 30.22354946602069,
        "Longitude(deg)": -85.60542881916531,
        "Mean Anomaly(deg)": -321.07047667195826,
        "RAAN(deg)": 349.981324277211,
        "Satellite Name": "Starlink Shell 1 1541",
        "Satellite Number": 1541,
        "Semi-Major Axis(m)": 6931778.249405717,
        "Time(s)": 360
    },
    {
        "Altitude(m)": 555151.1499325212,
        "Argument of Periapsis(deg)": 0.012897403741915765,
        "Eccentricity": 0.0,
        "Inclination(deg)": 53.0,
        "Latitude(deg)": 30.674957691831164,
        "Longitude(deg)": -85.14065189096284,
        "Mean Anomaly(deg)": -320.4436454684016,
        "RAAN(deg)": 349.9808055071335,
        "Satellite Name": "Starlink Shell 1 1541",
        "Satellite Number": 1541,
        "Semi-Major Axis(m)": 6931778.249405717,
        "Time(s)": 370
    }
]